NORAD_CAT_ID,OBJECT_NAME,OBJECT_TYPE,EPOCH,MEAN_MOTION,ECCENTRICITY,INCLINATION,RA_OF_ASC_NODE,ARG_OF_PERICENTER,MEAN_ANOMALY,BSTAR,MEAN_MOTION_DOT,MEAN_MOTION_DDOT,TLE_LINE0,TLE_LINE1,TLE_LINE2,SEMIMAJOR_AXIS,PERIOD,APOGEE,PERIGEE,DECAYED
51788.0,STARLINK-3641,PAYLOAD,2024-03-16 04:07:07,15.0885505,0.0001428,53.2181,357.1184,98.7435,261.3719,0.00020975,3.053e-05,0.0,0 STARLINK-3641,1 51788U 22017W   24076.17161928  .00003053  00000-0  20975-3 0  9992,2 51788  53.2181 357.1184 0001428  98.7435 261.3719 15.08855050114698,6917.834,95.437,540.687,538.712,0.0
51788.0,STARLINK-3641,PAYLOAD,2024-03-17 03:57:55,15.08840378,0.0001339,53.2195,352.6519,100.7294,259.3849,-1.2664e-05,-4.89e-06,0.0,0 STARLINK-3641,1 51788U 22017W   24077.16522714 -.00000489  00000-0 -12664-4 0  9995,2 51788  53.2195 352.6519 0001339 100.7294 259.3849 15.08840378114848,6917.879,95.438,540.671,538.818,0.0
51788.0,STARLINK-3641,PAYLOAD,2024-03-17 21:27:09,15.08845854,0.00012,53.218,349.384,102.6697,257.443,2.6827e-05,1.39e-06,0.0,0 STARLINK-3641,1 51788U 22017W   24077.89386527  .00000139  00000-0  26827-4 0  9991,2 51788  53.2180 349.3840 0001200 102.6697 257.4430 15.08845854114958,6917.862,95.437,540.558,538.897,0.0
51788.0,STARLINK-3641,PAYLOAD,2024-03-18 03:48:42,15.08849799,0.0001489,53.2187,348.1939,102.9124,257.2034,0.0001167,1.57e-05,0.0,0 STARLINK-3641,1 51788U 22017W   24078.15882318  .00001570  00000-0  11670-3 0  9999,2 51788  53.2187 348.1939 0001489 102.9124 257.2034 15.08849799114992,6917.85,95.437,540.746,538.685,0.0
51788.0,STARLINK-3641,PAYLOAD,2024-03-18 14:56:24,15.08840742,0.0001324,53.2185,346.1101,110.6498,249.4636,0.00018613,2.676e-05,0.0,0 STARLINK-3641,1 51788U 22017W   24078.62250742  .00002676  00000-0  18613-3 0  9993,2 51788  53.2185 346.1101 0001324 110.6498 249.4636 15.08840742115066,6917.878,95.438,540.659,538.827,0.0
51788.0,STARLINK-3641,PAYLOAD,2024-03-18 21:17:57,15.08840311,0.0001349,53.2189,344.9207,108.2586,251.8553,0.00011477,1.539e-05,0.0,0 STARLINK-3641,1 51788U 22017W   24078.88746793  .00001539  00000-0  11477-3 0  9995,2 51788  53.2189 344.9207 0001349 108.2586 251.8553 15.08840311115103,6917.879,95.438,540.678,538.811,0.0
51788.0,STARLINK-3641,PAYLOAD,2024-03-19 00:28:43,15.08843161,0.000157,53.2188,344.3305,101.843,258.2738,0.00013608,1.879e-05,0.0,0 STARLINK-3641,1 51788U 22017W   24079.01994738  .00001879  00000-0  13608-3 0  9990,2 51788  53.2188 344.3305 0001570 101.8430 258.2738 15.08843161115122,6917.871,95.437,540.822,538.65,0.0
51788.0,STARLINK-3641,PAYLOAD,2024-03-19 21:08:43,15.08854411,0.0001551,53.2183,340.4646,113.8344,246.2811,0.00016424,2.328e-05,0.0,0 STARLINK-3641,1 51788U 22017W   24079.88105853  .00002328  00000-0  16424-3 0  9996,2 51788  53.2183 340.4646 0001551 113.8344 246.2811 15.08854411115251,6917.836,95.437,540.774,538.628,0.0
51788.0,STARLINK-3641,PAYLOAD,2024-03-20 03:30:15,15.08858901,0.0001526,53.2185,339.2731,113.4232,246.692,0.00029155,4.357e-05,0.0,0 STARLINK-3641,1 51788U 22017W   24080.14601497  .00004357  00000-0  29155-3 0  9991,2 51788  53.2185 339.2731 0001526 113.4232 246.6920 15.08858901115295,6917.823,95.436,540.743,538.632,0.0
51788.0,STARLINK-3641,PAYLOAD,2024-03-20 20:59:31,15.08835431,0.0002585,53.2173,335.994,143.1882,216.9288,-4.2021e-05,-9.57e-06,0.0,0 STARLINK-3641,1 51788U 22017W   24080.87466615 -.00000957  00000-0 -42021-4 0  9994,2 51788  53.2173 335.9940 0002585 143.1882 216.9288 15.08835431115407,6917.894,95.438,541.548,537.971,0.0
51788.0,STARLINK-3641,PAYLOAD,2024-03-20 22:34:54,15.08828016,0.0001426,53.2187,335.7091,120.3064,239.8069,-0.00013766,-2.477e-05,0.0,0 STARLINK-3641,1 51788U 22017W   24080.94091072 -.00002477  00000-0 -13766-3 0  9995,2 51788  53.2187 335.7091 0001426 120.3064 239.8069 15.08828016115412,6917.917,95.438,540.769,538.796,0.0
51788.0,STARLINK-3641,PAYLOAD,2024-03-21 00:10:17,15.08826872,0.0001185,53.2186,335.4132,109.0015,251.1106,-0.00015884,-2.814e-05,0.0,0 STARLINK-3641,1 51788U 22017W   24081.00715090 -.00002814  00000-0 -15884-3 0  9994,2 51788  53.2186 335.4132 0001185 109.0015 251.1106 15.08826872115424,6917.921,95.438,540.605,538.966,0.0
51788.0,STARLINK-3641,PAYLOAD,2024-03-21 09:42:36,15.08834223,0.0001033,53.2184,333.6279,98.7647,261.3462,0.000148,2.068e-05,0.0,0 STARLINK-3641,1 51788U 22017W   24081.40459251  .00002068  00000-0  14800-3 0  9998,2 51788  53.2184 333.6279 0001033  98.7647 261.3462 15.08834223115484,6917.898,95.438,540.478,539.048,0.0
51788.0,STARLINK-3641,PAYLOAD,2024-03-21 20:50:18,15.08852902,0.0001072,53.2179,331.5496,103.3355,256.7757,0.0010776,0.0001691,0.0,0 STARLINK-3641,1 51788U 22017W   24081.86827211  .00016910  00000-0  10776-2 0  9991,2 51788  53.2179 331.5496 0001072 103.3355 256.7757 15.08852902115555,6917.841,95.437,540.448,538.964,0.0
51788.0,STARLINK-3641,PAYLOAD,2024-03-21 22:25:41,15.08861545,0.0001092,53.2182,331.2523,98.9665,261.1451,0.0015306,0.0002417,0.0,0 STARLINK-3641,1 51788U 22017W   24081.93451243  .00024170  00000-0  15306-2 0  9998,2 51788  53.2182 331.2523 0001092  98.9665 261.1451 15.08861545115567,6917.815,95.436,540.435,538.924,0.0
51788.0,STARLINK-3641,PAYLOAD,2024-03-22 01:36:27,15.08874945,0.0001071,53.2183,330.6584,98.1784,261.9329,0.0019056,0.00030199,0.0,0 STARLINK-3641,1 51788U 22017W   24082.06698911  .00030199  00000-0  19056-2 0  9992,2 51788  53.2183 330.6584 0001071  98.1784 261.9329 15.08874945115581,6917.774,95.435,540.379,538.898,0.0
51788.0,STARLINK-3641,PAYLOAD,2024-03-22 20:41:05,15.08858318,0.0001974,53.2169,327.0852,131.4338,228.6824,0.00031242,4.69e-05,0.0,0 STARLINK-3641,1 51788U 22017W   24082.86186343  .00004690  00000-0  31242-3 0  9990,2 51788  53.2169 327.0852 0001974 131.4338 228.6824 15.08858318115701,6917.824,95.436,541.055,538.324,0.0
51788.0,STARLINK-3641,PAYLOAD,2024-03-22 22:16:28,15.08857021,0.0001626,53.2172,326.7885,131.6802,228.4329,0.00032487,4.888e-05,0.0,0 STARLINK-3641,1 51788U 22017W   24082.92810318  .00004888  00000-0  32487-3 0  9994,2 51788  53.2172 326.7885 0001626 131.6802 228.4329 15.08857021115718,6917.828,95.436,540.818,538.569,0.0
51788.0,STARLINK-3641,PAYLOAD,2024-03-23 20:31:52,15.08834427,0.0002858,53.2173,322.6222,139.055,221.0657,0.0010455,0.00016388,0.0,0 STARLINK-3641,1 51788U 22017W   24083.85546993  .00016388  00000-0  10455-2 0  9990,2 51788  53.2173 322.6222 0002858 139.0550 221.0657 15.08834427115852,6917.897,95.438,541.74,537.785,0.0
51788.0,STARLINK-3641,PAYLOAD,2024-03-23 22:07:16,15.08835956,0.0001358,53.2167,322.3296,91.0234,269.0914,0.00073425,0.00011416,0.0,0 STARLINK-3641,1 51788U 22017W   24083.92171387  .00011416  00000-0  73425-3 0  9993,2 51788  53.2167 322.3296 0001358  91.0234 269.0914 15.08835956115860,6917.893,95.438,540.697,538.818,0.0
51788.0,STARLINK-3641,PAYLOAD,2024-03-24 09:14:58,15.08837989,0.0001438,53.2163,320.249,73.7002,286.4148,0.00063202,9.784e-05,0.0,0 STARLINK-3641,1 51788U 22017W   24084.38539697  .00009784  00000-0  63202-3 0  9993,2 51788  53.2163 320.2490 0001438  73.7002 286.4148 15.08837989115936,6917.887,95.438,540.746,538.757,0.0
51788.0,STARLINK-3641,PAYLOAD,2024-03-24 21:58:02,15.08872816,9.94e-05,53.214,317.8676,87.732,272.3786,0.0017607,0.0002787,0.0,0 STARLINK-3641,1 51788U 22017W   24084.91531050  .00027870  00000-0  17607-2 0  9990,2 51788  53.2140 317.8676 0000994  87.7320 272.3786 15.08872816116013,6917.78,95.435,540.333,538.957,0.0
51788.0,STARLINK-3641,PAYLOAD,2024-03-25 01:08:48,15.08912116,0.0001589,53.2167,317.2707,100.9493,259.1678,0.0033219,0.00053084,0.0,0 STARLINK-3641,1 51788U 22017W   24085.04778432  .00053084  00000-0  33219-2 0  9995,2 51788  53.2167 317.2707 0001589 100.9493 259.1678 15.08912116116034,6917.66,95.433,540.624,538.426,0.0
51788.0,STARLINK-3641,PAYLOAD,2024-03-25 09:05:44,15.0887197,0.0001341,53.2172,315.7869,88.4048,271.7098,0.00097293,0.00015244,0.0,0 STARLINK-3641,1 51788U 22017W   24085.37898331  .00015244  00000-0  97293-3 0  9991,2 51788  53.2172 315.7869 0001341  88.4048 271.7098 15.08871970116087,6917.783,95.436,540.575,538.72,0.0
51788.0,STARLINK-3641,PAYLOAD,2024-03-25 21:48:49,15.08846845,0.0001574,53.2164,313.408,94.4655,265.6517,7.4021e-05,8.9e-06,0.0,0 STARLINK-3641,1 51788U 22017W   24085.90890740  .00000890  00000-0  74021-4 0  9992,2 51788  53.2164 313.4080 0001574  94.4655 265.6517 15.08846845116167,6917.859,95.437,540.813,538.636,0.0
51788.0,STARLINK-3641,PAYLOAD,2024-03-26 21:39:37,15.08826135,0.0001552,53.2153,308.9474,88.5993,271.5177,-7.1342e-05,-1.423e-05,0.0,0 STARLINK-3641,1 51788U 22017W   24086.90252237 -.00001423  00000-0 -71342-4 0  9994,2 51788  53.2153 308.9474 0001552  88.5993 271.5177 15.08826135116311,6917.923,95.438,540.861,538.714,0.0
51788.0,STARLINK-3641,PAYLOAD,2024-03-27 07:11:58,15.08831133,0.0004842,53.2166,307.1612,74.9728,285.18,0.00081114,0.00012643,0.0,0 STARLINK-3641,1 51788U 22017W   24087.29997957  .00012643  00000-0  81114-3 0  9993,2 51788  53.2166 307.1612 0004842  74.9728 285.1800 15.08831133116374,6917.907,95.438,543.122,536.423,0.0
51788.0,STARLINK-3641,PAYLOAD,2024-03-27 21:30:24,15.0887383,0.0001652,53.217,304.4861,92.1666,267.9515,0.0014696,0.000232,0.0,0 STARLINK-3641,1 51788U 22017W   24087.89611451  .00023200  00000-0  14696-2 0  9992,2 51788  53.2170 304.4861 0001652  92.1666 267.9515 15.08873830116465,6917.777,95.435,540.785,538.499,0.0
51788.0,STARLINK-3641,PAYLOAD,2024-03-28 07:02:42,15.08864387,0.0001323,53.2159,302.7018,78.5583,281.5558,0.00082004,0.00012796,0.0,0 STARLINK-3641,1 51788U 22017W   24088.29355146  .00012796  00000-0  82004-3 0  9990,2 51788  53.2159 302.7018 0001323  78.5583 281.5558 15.08864387116521,6917.806,95.436,540.586,538.756,0.0
51788.0,STARLINK-3641,PAYLOAD,2024-03-28 21:21:11,15.08841094,0.0001685,53.2156,300.0232,74.4283,285.6895,-4.751e-05,-1.044e-05,0.0,0 STARLINK-3641,1 51788U 22017W   24088.88971658 -.00001044  00000-0 -47510-4 0  9997,2 51788  53.2156 300.0232 0001685  74.4283 285.6895 15.08841094116619,6917.877,95.437,540.908,538.576,0.0
